start=new Date('2022-10-20T00:00:00.000Z').valueOf();
sats=[{"GP_ID":"215618649","BSTAR":"-0.00005848700000","NORAD_CAT_ID":"45770","CLASSIFICATION_TYPE":"U","ARG_OF_PERICENTER":"41.3709","COUNTRY_CODE":"US","MEAN_ELEMENT_THEORY":"SGP4","RA_OF_ASC_NODE":"350.2649","TLE_LINE1":"1 45770U 20038AS  22292.57286087 -.00001152  00000-0 -58487-4 0  9993","SITE":"AFETR","RCS_SIZE":"LARGE","EPOCH":"2022-10-19T13:44:55.179168","EPHEMERIS_TYPE":"0","ECCENTRICITY":"0.00017970","INCLINATION":"53.0545","REV_AT_EPOCH":"13028","SEMIMAJOR_AXIS":"6925.387","DECAY_DATE":null,"TLE_LINE2":"2 45770  53.0545 350.2649 0001797  41.3709 318.7416 15.06387322130285","PERIAPSIS":"546.008","PERIOD":"95.593","MEAN_MOTION_DDOT":"0.0000000000000","MEAN_MOTION_DOT":"-0.00001152","OBJECT_NAME":"STARLINK-1462","MEAN_ANOMALY":"318.7416","OBJECT_ID":"2020-038AS","APOAPSIS":"548.497","TIME_SYSTEM":"UTC","MEAN_MOTION":"15.06387322","CENTER_NAME":"EARTH","REF_FRAME":"TEME","OBJECT_TYPE":"PAYLOAD","FILE":"3623738","LAUNCH_DATE":"2020-06-13","ELEMENT_SET_NO":"999"},{"OBJECT_ID":"2020-038AT","APOAPSIS":"548.299","OBJECT_NAME":"STARLINK-1463","MEAN_ANOMALY":"302.8669","MEAN_MOTION_DOT":"0.00000670","MEAN_MOTION_DDOT":"0.0000000000000","PERIOD":"95.592","PERIAPSIS":"546.123","TLE_LINE2":"2 45771  53.0553 350.8855 0001571  57.2471 302.8669 15.06400900131386","ELEMENT_SET_NO":"999","LAUNCH_DATE":"2020-06-13","OBJECT_TYPE":"PAYLOAD","REF_FRAME":"TEME","FILE":"3623202","CENTER_NAME":"EARTH","MEAN_MOTION":"15.06400900","TIME_SYSTEM":"UTC","SITE":"AFETR","RCS_SIZE":"LARGE","TLE_LINE1":"1 45771U 20038AT  22292.43372617  .00000670  00000-0  63893-4 0  9993","MEAN_ELEMENT_THEORY":"SGP4","RA_OF_ASC_NODE":"350.8855","NORAD_CAT_ID":"45771","CLASSIFICATION_TYPE":"U","COUNTRY_CODE":"US","ARG_OF_PERICENTER":"57.2471","BSTAR":"0.00006389300000","GP_ID":"215586853","REV_AT_EPOCH":"13138","SEMIMAJOR_AXIS":"6925.346","DECAY_DATE":null,"INCLINATION":"53.0553","EPOCH":"2022-10-19T10:24:33.941088","EPHEMERIS_TYPE":"0","ECCENTRICITY":"0.00015710"},{"DECAY_DATE":null,"SEMIMAJOR_AXIS":"6925.367","REV_AT_EPOCH":"13029","INCLINATION":"53.0572","EPHEMERIS_TYPE":"0","ECCENTRICITY":"0.00019700","EPOCH":"2022-10-19T13:19:43.991328","RCS_SIZE":"LARGE","SITE":"AFETR","TLE_LINE1":"1 45772U 20038AU  22292.55537027 -.00000623  00000-0 -22906-4 0  9995","MEAN_ELEMENT_THEORY":"SGP4","RA_OF_ASC_NODE":"350.3343","ARG_OF_PERICENTER":"43.5510","COUNTRY_CODE":"US","NORAD_CAT_ID":"45772","CLASSIFICATION_TYPE":"U","GP_ID":"215619646","BSTAR":"-0.00002290600000","ELEMENT_SET_NO":"999","LAUNCH_DATE":"2020-06-13","FILE":"3623738","OBJECT_TYPE":"PAYLOAD","REF_FRAME":"TEME","CENTER_NAME":"EARTH","MEAN_MOTION":"15.06394120","TIME_SYSTEM":"UTC","APOAPSIS":"548.596","OBJECT_ID":"2020-038AU","MEAN_ANOMALY":"316.5635","OBJECT_NAME":"STARLINK-1470","MEAN_MOTION_DOT":"-0.00000623","MEAN_MOTION_DDOT":"0.0000000000000","PERIOD":"95.593","PERIAPSIS":"545.867","TLE_LINE2":"2 45772  53.0572 350.3343 0001970  43.5510 316.5635 15.06394120130290"},{"MEAN_MOTION":"15.06395971","TIME_SYSTEM":"UTC","FILE":"3623204","OBJECT_TYPE":"PAYLOAD","REF_FRAME":"TEME","CENTER_NAME":"EARTH","ELEMENT_SET_NO":"999","LAUNCH_DATE":"2020-06-13","PERIAPSIS":"545.887","PERIOD":"95.592","TLE_LINE2":"2 45773  53.0552 350.3695 0001934  43.4669 316.6472 15.06395971131255","MEAN_MOTION_DDOT":"0.0000000000000","MEAN_MOTION_DOT":"0.00000346","OBJECT_ID":"2020-038AV","APOAPSIS":"548.565","MEAN_ANOMALY":"316.6472","OBJECT_NAME":"STARLINK-1482","EPHEMERIS_TYPE":"0","ECCENTRICITY":"0.00019340","EPOCH":"2022-10-19T13:09:06.940800","DECAY_DATE":null,"SEMIMAJOR_AXIS":"6925.361","REV_AT_EPOCH":"13125","INCLINATION":"53.0552","GP_ID":"215586871","BSTAR":"0.00004213700000","COUNTRY_CODE":"US","ARG_OF_PERICENTER":"43.4669","NORAD_CAT_ID":"45773","CLASSIFICATION_TYPE":"U","TLE_LINE1":"1 45773U 20038AV  22292.54799700  .00000346  00000-0  42137-4 0  9991","MEAN_ELEMENT_THEORY":"SGP4","RA_OF_ASC_NODE":"350.3695","RCS_SIZE":"LARGE","SITE":"AFETR"},{"RCS_SIZE":"LARGE","SITE":"AFETR","RA_OF_ASC_NODE":"350.2099","MEAN_ELEMENT_THEORY":"SGP4","TLE_LINE1":"1 45774U 20038AW  22292.58485303 -.00000696  00000-0 -27848-4 0  9999","COUNTRY_CODE":"US","ARG_OF_PERICENTER":"53.3559","CLASSIFICATION_TYPE":"U","NORAD_CAT_ID":"45774","BSTAR":"-0.00002784800000","GP_ID":"215618150","INCLINATION":"53.0555","DECAY_DATE":null,"SEMIMAJOR_AXIS":"6925.385","REV_AT_EPOCH":"13029","ECCENTRICITY":"0.00018600","EPHEMERIS_TYPE":"0","EPOCH":"2022-10-19T14:02:11.301792","MEAN_ANOMALY":"306.7600","OBJECT_NAME":"STARLINK-1485","APOAPSIS":"548.538","OBJECT_ID":"2020-038AW","MEAN_MOTION_DOT":"-0.00000696","MEAN_MOTION_DDOT":"0.0000000000000","TLE_LINE2":"2 45774  53.0555 350.2099 0001860  53.3559 306.7600 15.06388160130290","PERIAPSIS":"545.962","PERIOD":"95.593","LAUNCH_DATE":"2020-06-13","ELEMENT_SET_NO":"999","CENTER_NAME":"EARTH","FILE":"3623738","REF_FRAME":"TEME","OBJECT_TYPE":"PAYLOAD","TIME_SYSTEM":"UTC","MEAN_MOTION":"15.06388160"},{"ECCENTRICITY":"0.00020820","EPHEMERIS_TYPE":"0","EPOCH":"2022-10-19T14:07:18.198912","SEMIMAJOR_AXIS":"6925.010","DECAY_DATE":null,"REV_AT_EPOCH":"13030","INCLINATION":"53.0545","GP_ID":"215619400","BSTAR":"0.00091982000000","COUNTRY_CODE":"US","ARG_OF_PERICENTER":"56.8944","NORAD_CAT_ID":"45775","CLASSIFICATION_TYPE":"U","TLE_LINE1":"1 45775U 20038AX  22292.58840508  .00013486  00000-0  91982-3 0  9990","RA_OF_ASC_NODE":"350.1965","MEAN_ELEMENT_THEORY":"SGP4","RCS_SIZE":"LARGE","SITE":"AFETR","MEAN_MOTION":"15.06510310","TIME_SYSTEM":"UTC","FILE":"3623738","OBJECT_TYPE":"PAYLOAD","REF_FRAME":"TEME","CENTER_NAME":"EARTH","ELEMENT_SET_NO":"999","LAUNCH_DATE":"2020-06-13","PERIAPSIS":"545.434","PERIOD":"95.585","TLE_LINE2":"2 45775  53.0545 350.1965 0002082  56.8944 303.2244 15.06510310130306","MEAN_MOTION_DDOT":"0.0000000000000","MEAN_MOTION_DOT":"0.00013486","APOAPSIS":"548.317","OBJECT_ID":"2020-038AX","MEAN_ANOMALY":"303.2244","OBJECT_NAME":"STARLINK-1488"},{"REV_AT_EPOCH":"13027","SEMIMAJOR_AXIS":"6925.335","DECAY_DATE":null,"INCLINATION":"53.0563","EPOCH":"2022-10-19T09:31:29.838432","ECCENTRICITY":"0.00021200","EPHEMERIS_TYPE":"0","TLE_LINE1":"1 45776U 20038AY  22292.39687313  .00001810  00000-0  14037-3 0  9997","MEAN_ELEMENT_THEORY":"SGP4","RA_OF_ASC_NODE":"351.0494","SITE":"AFETR","RCS_SIZE":"LARGE","BSTAR":"0.00014037000000","GP_ID":"215577614","NORAD_CAT_ID":"45776","CLASSIFICATION_TYPE":"U","ARG_OF_PERICENTER":"38.9528","COUNTRY_CODE":"US","REF_FRAME":"TEME","OBJECT_TYPE":"PAYLOAD","FILE":"3623062","CENTER_NAME":"EARTH","ELEMENT_SET_NO":"999","LAUNCH_DATE":"2020-06-13","MEAN_MOTION":"15.06404295","TIME_SYSTEM":"UTC","MEAN_MOTION_DOT":"0.00001810","OBJECT_ID":"2020-038AY","APOAPSIS":"548.669","OBJECT_NAME":"STARLINK-1489","MEAN_ANOMALY":"321.1613","PERIAPSIS":"545.732","PERIOD":"95.592","TLE_LINE2":"2 45776  53.0563 351.0494 0002120  38.9528 321.1613 15.06404295130275","MEAN_MOTION_DDOT":"0.0000000000000"},{"ELEMENT_SET_NO":"999","LAUNCH_DATE":"2020-06-13","FILE":"3623738","REF_FRAME":"TEME","OBJECT_TYPE":"PAYLOAD","CENTER_NAME":"EARTH","MEAN_MOTION":"15.06397206","TIME_SYSTEM":"UTC","APOAPSIS":"548.721","OBJECT_ID":"2020-038AZ","MEAN_ANOMALY":"318.9187","OBJECT_NAME":"STARLINK-1490","MEAN_MOTION_DOT":"-0.00000830","MEAN_MOTION_DDOT":"0.0000000000000","PERIAPSIS":"545.723","PERIOD":"95.592","TLE_LINE2":"2 45777  53.0556 350.1739 0002165  41.1965 318.9187 15.06397206130307","DECAY_DATE":null,"SEMIMAJOR_AXIS":"6925.357","REV_AT_EPOCH":"13030","INCLINATION":"53.0556","EPHEMERIS_TYPE":"0","ECCENTRICITY":"0.00021650","EPOCH":"2022-10-19T14:12:48.800736","RCS_SIZE":"LARGE","SITE":"AFETR","TLE_LINE1":"1 45777U 20038AZ  22292.59223149 -.00000830  00000-0 -36786-4 0  9992","MEAN_ELEMENT_THEORY":"SGP4","RA_OF_ASC_NODE":"350.1739","ARG_OF_PERICENTER":"41.1965","COUNTRY_CODE":"US","NORAD_CAT_ID":"45777","CLASSIFICATION_TYPE":"U","GP_ID":"215618400","BSTAR":"-0.00003678600000"},{"MEAN_MOTION_DOT":"0.00001021","MEAN_ANOMALY":"304.8169","OBJECT_NAME":"STARLINK-1491","APOAPSIS":"548.309","OBJECT_ID":"2020-038BA","TLE_LINE2":"2 45778  53.0564 350.8391 0001597  55.2970 304.8169 15.06403461130268","PERIOD":"95.592","PERIAPSIS":"546.097","MEAN_MOTION_DDOT":"0.0000000000000","CENTER_NAME":"EARTH","FILE":"3623062","OBJECT_TYPE":"PAYLOAD","REF_FRAME":"TEME","LAUNCH_DATE":"2020-06-13","ELEMENT_SET_NO":"999","TIME_SYSTEM":"UTC","MEAN_MOTION":"15.06403461","RA_OF_ASC_NODE":"350.8391","MEAN_ELEMENT_THEORY":"SGP4","TLE_LINE1":"1 45778U 20038BA  22292.44109958  .00001021  00000-0  87417-4 0  9996","RCS_SIZE":"LARGE","SITE":"AFETR","GP_ID":"215578115","BSTAR":"0.00008741700000","ARG_OF_PERICENTER":"55.2970","COUNTRY_CODE":"US","CLASSIFICATION_TYPE":"U","NORAD_CAT_ID":"45778","INCLINATION":"53.0564","SEMIMAJOR_AXIS":"6925.338","DECAY_DATE":null,"REV_AT_EPOCH":"13026","EPHEMERIS_TYPE":"0","ECCENTRICITY":"0.00015970","EPOCH":"2022-10-19T10:35:11.003712"},{"INCLINATION":"53.0564","DECAY_DATE":null,"SEMIMAJOR_AXIS":"6918.441","REV_AT_EPOCH":"13026","EPHEMERIS_TYPE":"0","ECCENTRICITY":"0.00017620","EPOCH":"2022-10-19T09:38:41.871264","RA_OF_ASC_NODE":"350.6574","MEAN_ELEMENT_THEORY":"SGP4","TLE_LINE1":"1 45779U 20038BB  22292.40187351  .00019800  00000-0  12648-2 0  9992","RCS_SIZE":"LARGE","SITE":"AFETR","BSTAR":"0.00126480000000","GP_ID":"215578366","ARG_OF_PERICENTER":"44.6274","COUNTRY_CODE":"US","CLASSIFICATION_TYPE":"U","NORAD_CAT_ID":"45779","CENTER_NAME":"EARTH","FILE":"3623062","OBJECT_TYPE":"PAYLOAD","REF_FRAME":"TEME","LAUNCH_DATE":"2020-06-13","ELEMENT_SET_NO":"999","TIME_SYSTEM":"UTC","MEAN_MOTION":"15.08656636","MEAN_MOTION_DOT":"0.00019800","MEAN_ANOMALY":"315.4858","OBJECT_NAME":"STARLINK-1492","OBJECT_ID":"2020-038BB","APOAPSIS":"541.525","TLE_LINE2":"2 45779  53.0564 350.6574 0001762  44.6274 315.4858 15.08656636130262","PERIAPSIS":"539.087","PERIOD":"95.449","MEAN_MOTION_DDOT":"0.0000000000000"}];
